{"type": "FeatureCollection", "features": [ {"type": "Feature", "properties": {"norad_id": 66479, "name": "STARLINK-35581", "group": "last-30-days", "lat": 13.896778874463145, "lon": -100.02143529659418, "alt_km": 412.87608754716894, "timestamp": "2025-12-08T13:49:30.576189+00:00", "meta": {"OBJECT_NAME": "STARLINK-35581", "OBJECT_ID": "2025-262Z", "EPOCH": "2025-12-08T06:00:02.999808", "MEAN_MOTION": 15.50631707, "ECCENTRICITY": 0.00012065, "INCLINATION": 43.0004, "RA_OF_ASC_NODE": 97.2831, "ARG_OF_PERICENTER": 254.4472, "MEAN_ANOMALY": 242.8023, "EPHEMERIS_TYPE": 0, "CLASSIFICATION_TYPE": "U", "NORAD_CAT_ID": 66479, "ELEMENT_SET_NO": 999, "REV_AT_EPOCH": 491, "BSTAR": -0.00090533397, "MEAN_MOTION_DOT": -0.00053192, "MEAN_MOTION_DDOT": 0}, "tle": {"line1": "1 66479U 25262Z   25342.25003472 -.00053192  00000+0 -90533-3 0  9992", "line2": "2 66479  43.0004  97.2831 0001206 254.4472 242.8023 15.50631707  4912"}}, "geometry": {"type": "Point", "coordinates": [-100.02143529659418, 13.896778874463145]}}, {"type": "Feature", "properties": {"norad_id": 66480, "name": "STARLINK-35670", "group": "last-30-days", "lat": 10.127403276256961, "lon": -95.68993426685769, "alt_km": 413.63502360031544, "timestamp": "2025-12-08T13:49:30.576199+00:00", "meta": {"OBJECT_NAME": "STARLINK-35670", "OBJECT_ID": "2025-262AA", "EPOCH": "2025-12-08T06:00:02.999808", "MEAN_MOTION": 15.5058074, "ECCENTRICITY": 0.00015859, "INCLINATION": 43.0005, "RA_OF_ASC_NODE": 97.2683, "ARG_OF_PERICENTER": 261.8611, "MEAN_ANOMALY": 241.1256, "EPHEMERIS_TYPE": 0, "CLASSIFICATION_TYPE": "U", "NORAD_CAT_ID": 66480, "ELEMENT_SET_NO": 999, "REV_AT_EPOCH": 491, "BSTAR": -0.00069858769, "MEAN_MOTION_DOT": -0.00041112, "MEAN_MOTION_DDOT": 0}, "tle": {"line1": "1 66480U 25262AA  25342.25003472 -.00041112  00000+0 -69859-3 0  9990", "line2": "2 66480  43.0005  97.2683 0001585 261.8611 241.1256 15.50580740  4917"}}, "geometry": {"type": "Point", "coordinates": [-95.68993426685769, 10.127403276256961]}}, {"type": "Feature", "properties": {"norad_id": 66481, "name": "STARLINK-35698", "group": "last-30-days", "lat": 8.8452326189607, "lon": -94.25675516718337, "alt_km": 413.8675821319566, "timestamp": "2025-12-08T13:49:30.576212+00:00", "meta": {"OBJECT_NAME": "STARLINK-35698", "OBJECT_ID": "2025-262AB", "EPOCH": "2025-12-08T06:00:02.999808", "MEAN_MOTION": 15.50560535, "ECCENTRICITY": 0.00016562, "INCLINATION": 43.0005, "RA_OF_ASC_NODE": 97.2637, "ARG_OF_PERICENTER": 265.8248, "MEAN_ANOMALY": 239.0846, "EPHEMERIS_TYPE": 0, "CLASSIFICATION_TYPE": "U", "NORAD_CAT_ID": 66481, "ELEMENT_SET_NO": 999, "REV_AT_EPOCH": 491, "BSTAR": -0.00013822976, "MEAN_MOTION_DOT": -8.437e-05, "MEAN_MOTION_DDOT": 0}, "tle": {"line1": "1 66481U 25262AB  25342.25003472 -.00008437  00000+0 -13823-3 0  9994", "line2": "2 66481  43.0005  97.2637 0001656 265.8248 239.0846 15.50560535  4917"}}, "geometry": {"type": "Point", "coordinates": [-94.25675516718337, 8.8452326189607]}}, {"type": "Feature", "properties": {"norad_id": 66482, "name": "STARLINK-35648", "group": "last-30-days", "lat": 7.556016162847181, "lon": -92.83216302624955, "alt_km": 413.96292703304425, "timestamp": "2025-12-08T13:49:30.576222+00:00", "meta": {"OBJECT_NAME": "STARLINK-35648", "OBJECT_ID": "2025-262AC", "EPOCH": "2025-12-08T06:00:02.999808", "MEAN_MOTION": 15.50551764, "ECCENTRICITY": 0.00014596, "INCLINATION": 43.0004, "RA_OF_ASC_NODE": 97.2588, "ARG_OF_PERICENTER": 264.7905, "MEAN_ANOMALY": 242.0321, "EPHEMERIS_TYPE": 0, "CLASSIFICATION_TYPE": "U", "NORAD_CAT_ID": 66482, "ELEMENT_SET_NO": 999, "REV_AT_EPOCH": 476, "BSTAR": 0.00023256692, "MEAN_MOTION_DOT": 0.00013312, "MEAN_MOTION_DDOT": 0}, "tle": {"line1": "1 66482U 25262AC  25342.25003472  .00013312  00000+0  23257-3 0  9993", "line2": "2 66482  43.0004  97.2588 0001459 264.7905 242.0321 15.50551764  4760"}}, "geometry": {"type": "Point", "coordinates": [-92.83216302624955, 7.556016162847181]}}, {"type": "Feature", "properties": {"norad_id": 66483, "name": "STARLINK-35654", "group": "last-30-days", "lat": 6.255418680682526, "lon": -91.40943047857485, "alt_km": 414.1149807682368, "timestamp": "2025-12-08T13:49:30.576232+00:00", "meta": {"OBJECT_NAME": "STARLINK-35654", "OBJECT_ID": "2025-262AD", "EPOCH": "2025-12-08T06:00:02.999808", "MEAN_MOTION": 15.50567701, "ECCENTRICITY": 0.00015912, "INCLINATION": 43.0006, "RA_OF_ASC_NODE": 97.2531, "ARG_OF_PERICENTER": 263.324, "MEAN_ANOMALY": 245.4178, "EPHEMERIS_TYPE": 0, "CLASSIFICATION_TYPE": "U", "NORAD_CAT_ID": 66483, "ELEMENT_SET_NO": 999, "REV_AT_EPOCH": 491, "BSTAR": -0.00033769018, "MEAN_MOTION_DOT": -0.00020094, "MEAN_MOTION_DDOT": 0}, "tle": {"line1": "1 66483U 25262AD  25342.25003472 -.00020094  00000+0 -33769-3 0  9990", "line2": "2 66483  43.0006  97.2531 0001591 263.3240 245.4178 15.50567701  4917"}}, "geometry": {"type": "Point", "coordinates": [-91.40943047857485, 6.255418680682526]}}, {"type": "Feature", "properties": {"norad_id": 66484, "name": "STARLINK-35371", "group": "last-30-days", "lat": 4.9569729016955355, "lon": -89.99799493980879, "alt_km": 414.3635068088324, "timestamp": "2025-12-08T13:49:30.576241+00:00", "meta": {"OBJECT_NAME": "STARLINK-35371", "OBJECT_ID": "2025-262AE", "EPOCH": "2025-12-08T06:00:02.999808", "MEAN_MOTION": 15.50565374, "ECCENTRICITY": 0.00016584, "INCLINATION": 43.0004, "RA_OF_ASC_NODE": 97.2498, "ARG_OF_PERICENTER": 268.6088, "MEAN_ANOMALY": 242.0488, "EPHEMERIS_TYPE": 0, "CLASSIFICATION_TYPE": "U", "NORAD_CAT_ID": 66484, "ELEMENT_SET_NO": 999, "REV_AT_EPOCH": 491, "BSTAR": -0.00023978741, "MEAN_MOTION_DOT": -0.00014376, "MEAN_MOTION_DDOT": 0}, "tle": {"line1": "1 66484U 25262AE  25342.25003472 -.00014376  00000+0 -23979-3 0  9999", "line2": "2 66484  43.0004  97.2498 0001658 268.6088 242.0488 15.50565374  4911"}}, "geometry": {"type": "Point", "coordinates": [-89.99799493980879, 4.9569729016955355]}}, {"type": "Feature", "properties": {"norad_id": 66485, "name": "STARLINK-34774", "group": "last-30-days", "lat": 32.51282932934873, "lon": -167.3230953202952, "alt_km": 410.58795349709726, "timestamp": "2025-12-08T13:49:30.576252+00:00", "meta": {"OBJECT_NAME": "STARLINK-34774", "OBJECT_ID": "2025-263A", "EPOCH": "2025-12-08T06:00:02.999808", "MEAN_MOTION": 15.5056059, "ECCENTRICITY": 0.00015213, "INCLINATION": 43.0004, "RA_OF_ASC_NODE": 151.4279, "ARG_OF_PERICENTER": 276.2464, "MEAN_ANOMALY": 113.826, "EPHEMERIS_TYPE": 0, "CLASSIFICATION_TYPE": "U", "NORAD_CAT_ID": 66485, "ELEMENT_SET_NO": 999, "REV_AT_EPOCH": 491, "BSTAR": 0.0002887327, "MEAN_MOTION_DOT": 0.00016622, "MEAN_MOTION_DDOT": 0}, "tle": {"line1": "1 66485U 25263A   25342.25003472  .00016622  00000+0  28873-3 0  9993", "line2": "2 66485  43.0004 151.4279 0001521 276.2464 113.8260 15.50560590  4912"}}, "geometry": {"type": "Point", "coordinates": [-167.3230953202952, 32.51282932934873]}}, {"type": "Feature", "properties": {"norad_id": 66486, "name": "STARLINK-34844", "group": "last-30-days", "lat": 33.45117424709976, "lon": -165.3348200687822, "alt_km": 410.5708981466014, "timestamp": "2025-12-08T13:49:30.576264+00:00", "meta": {"OBJECT_NAME": "STARLINK-34844", "OBJECT_ID": "2025-263B", "EPOCH": "2025-12-08T06:00:02.999808", "MEAN_MOTION": 15.50572223, "ECCENTRICITY": 0.00016961, "INCLINATION": 43.0005, "RA_OF_ASC_NODE": 151.4216, "ARG_OF_PERICENTER": 279.9793, "MEAN_ANOMALY": 112.0158, "EPHEMERIS_TYPE": 0, "CLASSIFICATION_TYPE": "U", "NORAD_CAT_ID": 66486, "ELEMENT_SET_NO": 999, "REV_AT_EPOCH": 486, "BSTAR": -0.00070441288, "MEAN_MOTION_DOT": -0.00041439, "MEAN_MOTION_DDOT": 0}, "tle": {"line1": "1 66486U 25263B   25342.25003472 -.00041439  00000+0 -70441-3 0  9998", "line2": "2 66486  43.0005 151.4216 0001696 279.9793 112.0158 15.50572223  4860"}}, "geometry": {"type": "Point", "coordinates": [-165.3348200687822, 33.45117424709976]}}, {"type": "Feature", "properties": {"norad_id": 66487, "name": "STARLINK-34733", "group": "last-30-days", "lat": 34.35617563534486, "lon": -163.30175215416946, "alt_km": 410.4598870862783, "timestamp": "2025-12-08T13:49:30.576274+00:00", "meta": {"OBJECT_NAME": "STARLINK-34733", "OBJECT_ID": "2025-263C", "EPOCH": "2025-12-08T06:00:02.999808", "MEAN_MOTION": 15.50568399, "ECCENTRICITY": 0.00016698, "INCLINATION": 43.0004, "RA_OF_ASC_NODE": 151.4185, "ARG_OF_PERICENTER": 278.6013, "MEAN_ANOMALY": 115.3116, "EPHEMERIS_TYPE": 0, "CLASSIFICATION_TYPE": "U", "NORAD_CAT_ID": 66487, "ELEMENT_SET_NO": 999, "REV_AT_EPOCH": 491, "BSTAR": -0.00059876208, "MEAN_MOTION_DOT": -0.00035297, "MEAN_MOTION_DDOT": 0}, "tle": {"line1": "1 66487U 25263C   25342.25003472 -.00035297  00000+0 -59876-3 0  9993", "line2": "2 66487  43.0004 151.4185 0001669 278.6013 115.3116 15.50568399  4911"}}, "geometry": {"type": "Point", "coordinates": [-163.30175215416946, 34.35617563534486]}}, {"type": "Feature", "properties": {"norad_id": 66488, "name": "STARLINK-35515", "group": "last-30-days", "lat": 35.22763162118877, "lon": -161.22615174063176, "alt_km": 410.31635979705425, "timestamp": "2025-12-08T13:49:30.576300+00:00", "meta": {"OBJECT_NAME": "STARLINK-35515", "OBJECT_ID": "2025-263D", "EPOCH": "2025-12-08T06:00:02.999808", "MEAN_MOTION": 15.50568782, "ECCENTRICITY": 0.00016139, "INCLINATION": 43.0005, "RA_OF_ASC_NODE": 151.4126, "ARG_OF_PERICENTER": 278.771, "MEAN_ANOMALY": 117.0588, "EPHEMERIS_TYPE": 0, "CLASSIFICATION_TYPE": "U", "NORAD_CAT_ID": 66488, "ELEMENT_SET_NO": 999, "REV_AT_EPOCH": 491, "BSTAR": -0.00060593401, "MEAN_MOTION_DOT": -0.00035714, "MEAN_MOTION_DDOT": 0}, "tle": {"line1": "1 66488U 25263D   25342.25003472 -.00035714  00000+0 -60593-3 0  9996", "line2": "2 66488  43.0005 151.4126 0001613 278.7710 117.0588 15.50568782  4910"}}, "geometry": {"type": "Point", "coordinates": [-161.22615174063176, 35.22763162118877]}}]}